{"type": "FeatureCollection", "features": [{"type": "Feature", "properties": {"county": "Finney County", "state": "KS", "fips": "20055", "rep_id": "REP-01"}, "geometry": {"type": "Polygon", "coordinates": [[[-100.227137, 38.262237], [-100.22661, 38.001015], [-100.664166, 38.00253], [-100.652251, 37.736275], [-101.089667, 37.736337], [-101.103778, 37.829035], [-101.103268, 38.264557], [-100.687836, 38.26415], [-100.244393, 38.26229], [-100.227137, 38.262237]]]}, "id": "20055"}, {"type": "Feature", "properties": {"county": "Grant County", "state": "KS", "fips": "20067", "rep_id": "REP-01"}, "geometry": {"type": "Polygon", "coordinates": [[[-101.52581, 37.388392], [-101.527063, 37.736314], [-101.089667, 37.736337], [-101.089653, 37.387721], [-101.52581, 37.388392]]]}, "id": "20067"}, {"type": "Feature", "properties": {"county": "Seward County", "state": "KS", "fips": "20175", "rep_id": "REP-01"}, "geometry": {"type": "Polygon", "coordinates": [[[-100.633327, 36.999936], [-100.675552, 36.999688], [-100.756894, 36.999357], [-100.765484, 36.999177], [-100.806116, 36.999091], [-100.814277, 36.999085], [-100.855634, 36.998626], [-100.89166, 36.998604], [-100.904274, 36.998745], [-100.904588, 36.998561], [-100.945469, 36.998153], [-100.945566, 36.998152], [-100.996502, 36.998044], [-101.012641, 36.998176], [-101.053589, 36.997967], [-101.066742, 36.997921], [-101.066457, 36.998493], [-101.067904, 37.387779], [-100.652728, 37.387627], [-100.633831, 37.387577], [-100.633323, 36.999936], [-100.633327, 36.999936]]]}, "id": "20175"}, {"type": "Feature", "properties": {"county": "Thomas County", "state": "KS", "fips": "20193", "rep_id": "REP-02"}, "geometry": {"type": "Polygon", "coordinates": [[[-100.720213, 39.568034], [-100.721296, 39.133381], [-100.775177, 39.133265], [-100.775311, 39.133375], [-100.811858, 39.13336], [-101.391717, 39.135117], [-101.389068, 39.568369], [-100.740873, 39.568043], [-100.720213, 39.568034]]]}, "id": "20193"}, {"type": "Feature", "properties": {"county": "Sherman County", "state": "KS", "fips": "20181", "rep_id": "REP-02"}, "geometry": {"type": "Polygon", "coordinates": [[[-101.389068, 39.568369], [-101.391717, 39.135117], [-101.478195, 39.134761], [-102.047189, 39.133147], [-102.04725, 39.13702], [-102.048449, 39.303138], [-102.04896, 39.373712], [-102.049167, 39.403597], [-102.04937, 39.41821], [-102.049369, 39.423333], [-102.049679, 39.506183], [-102.049673, 39.536691], [-102.049554, 39.538932], [-102.049764, 39.56818], [-101.413913, 39.568361], [-101.389068, 39.568369]]]}, "id": "20181"}, {"type": "Feature", "properties": {"county": "Ford County", "state": "KS", "fips": "20057", "rep_id": "REP-02"}, "geometry": {"type": "Polygon", "coordinates": [[[-100.216229, 37.47519], [-100.214637, 37.826808], [-100.22709, 37.914018], [-99.569879, 37.913016], [-99.55958, 37.734888], [-99.556119, 37.467722], [-99.774512, 37.467404], [-100.107248, 37.474836], [-100.155812, 37.475016], [-100.15822, 37.474854], [-100.161075, 37.475021], [-100.216229, 37.47519]]]}, "id": "20057"}, {"type": "Feature", "properties": {"county": "Perkins County", "state": "NE", "fips": "31135", "rep_id": "REP-03"}, "geometry": {"type": "Polygon", "coordinates": [[[-102.051761, 41.00389], [-101.249975, 41.00395], [-101.247963, 40.697802], [-101.345365, 40.698093], [-102.051398, 40.697542], [-102.051292, 40.749586], [-102.051292, 40.749591], [-102.051614, 41.002377], [-102.051718, 41.002377], [-102.051761, 41.00389]]]}, "id": "31135"}, {"type": "Feature", "properties": {"county": "Chase County", "state": "NE", "fips": "31029", "rep_id": "REP-03"}, "geometry": {"type": "Polygon", "coordinates": [[[-102.051669, 40.349213], [-102.051572, 40.39308], [-102.05184, 40.396396], [-102.051465, 40.440008], [-102.051519, 40.520094], [-102.051725, 40.537839], [-102.051398, 40.697542], [-101.345365, 40.698093], [-101.342788, 40.350444], [-102.051669, 40.349213]]]}, "id": "31029"}, {"type": "Feature", "properties": {"county": "Dundy County", "state": "NE", "fips": "31057", "rep_id": "REP-03"}, "geometry": {"type": "Polygon", "coordinates": [[[-102.051669, 40.349213], [-101.342788, 40.350444], [-101.323353, 40.350553], [-101.324036, 40.002704], [-101.325514, 40.002687], [-101.342859, 40.00258], [-101.374326, 40.002521], [-101.409953, 40.002354], [-101.411043, 40.002365], [-101.417209, 40.002424], [-101.542273, 40.002609], [-101.625809, 40.002711], [-101.627071, 40.00262], [-101.804862, 40.002752], [-101.807687, 40.002798], [-101.832161, 40.002933], [-101.841025, 40.002784], [-101.904176, 40.003162], [-101.916696, 40.003142], [-102.051744, 40.003078], [-102.052001, 40.148359], [-102.051909, 40.162674], [-102.051894, 40.229193], [-102.051922, 40.235344], [-102.051669, 40.349213]]]}, "id": "31057"}, {"type": "Feature", "properties": {"county": "Box Butte County", "state": "NE", "fips": "31013", "rep_id": "REP-06"}, "geometry": {"type": "Polygon", "coordinates": [[[-103.444532, 42.437354], [-102.778666, 42.439745], [-102.773366, 42.439922], [-102.749431, 42.439934], [-102.742269, 42.092388], [-102.697835, 42.004843], [-103.363337, 42.00293], [-103.390382, 42.003365], [-103.401639, 42.00354], [-103.444108, 42.090708], [-103.444532, 42.437354]]]}, "id": "31013"}, {"type": "Feature", "properties": {"county": "Cheyenne County", "state": "NE", "fips": "31033", "rep_id": "REP-06"}, "geometry": {"type": "Polygon", "coordinates": [[[-103.382493, 41.001883], [-103.37762, 41.394633], [-103.370437, 41.394514], [-103.369024, 41.437655], [-102.636695, 41.439053], [-102.609386, 41.395115], [-102.610413, 41.221614], [-102.621033, 41.002597], [-102.653463, 41.002332], [-102.739624, 41.00223], [-102.754617, 41.002361], [-102.766723, 41.002275], [-102.773546, 41.002414], [-102.82728, 41.002143], [-102.830303, 41.002351], [-102.846455, 41.002256], [-102.849263, 41.002301], [-102.865784, 41.001988], [-102.867822, 41.002183], [-102.885746, 41.002131], [-102.887407, 41.002178], [-102.904796, 41.002207], [-102.906547, 41.002276], [-102.924029, 41.002142], [-102.925568, 41.00228], [-102.943109, 41.002051], [-102.94483, 41.002303], [-102.959624, 41.002095], [-102.960706, 41.002059], [-102.962522, 41.002072], [-102.963669, 41.002186], [-102.981483, 41.002112], [-102.98269, 41.002157], [-103.000102, 41.0024], [-103.002026, 41.002486], [-103.038704, 41.002251], [-103.043444, 41.002344], [-103.057998, 41.002368], [-103.059538, 41.002368], [-103.076536, 41.002253], [-103.077804, 41.002298], [-103.362979, 41.001844], [-103.365314, 41.001846], [-103.382493, 41.001883]]]}, "id": "31033"}, {"type": "Feature", "properties": {"county": "Keith County", "state": "NE", "fips": "31101", "rep_id": "REP-06"}, "geometry": {"type": "Polygon", "coordinates": [[[-101.98463, 41.394712], [-101.40726, 41.395416], [-101.269695, 41.394934], [-101.270381, 41.047392], [-101.249975, 41.00395], [-102.051761, 41.00389], [-102.055535, 41.221547], [-102.055256, 41.395162], [-101.98463, 41.394712]]]}, "id": "31101"}, {"type": "Feature", "properties": {"county": "Texas County", "state": "OK", "fips": "40139", "rep_id": "REP-04"}, "geometry": {"type": "Polygon", "coordinates": [[[-100.977088, 36.499595], [-101.045331, 36.49954], [-101.052418, 36.499563], [-101.085156, 36.499244], [-101.623915, 36.499528], [-101.649966, 36.499573], [-101.653708, 36.499573], [-101.698685, 36.499508], [-101.709314, 36.499722], [-101.779435, 36.499734], [-101.78061, 36.499727], [-101.781987, 36.499718], [-101.783359, 36.499709], [-101.78811, 36.499678], [-101.826498, 36.499535], [-101.826565, 36.499654], [-102.032339, 36.500066], [-102.028204, 36.993125], [-102.000447, 36.993272], [-102.000447, 36.993249], [-101.90244, 36.993702], [-101.601593, 36.995095], [-101.600396, 36.995153], [-101.55526, 36.995414], [-101.555239, 36.995414], [-101.519066, 36.995546], [-101.485326, 36.995611], [-101.415005, 36.995966], [-101.413868, 36.996008], [-101.37818, 36.996164], [-101.359674, 36.996232], [-101.357797, 36.996271], [-101.212909, 36.997044], [-101.211486, 36.997124], [-101.066742, 36.997921], [-101.053589, 36.997967], [-101.012641, 36.998176], [-100.996502, 36.998044], [-100.945566, 36.998152], [-100.945469, 36.998153], [-100.954153, 36.499599], [-100.977088, 36.499595]]]}, "id": "40139"}, {"type": "Feature", "properties": {"county": "Beaver County", "state": "OK", "fips": "40007", "rep_id": "REP-04"}, "geometry": {"type": "Polygon", "coordinates": [[[-100.546145, 36.499343], [-100.578114, 36.499439], [-100.578114, 36.499463], [-100.583379, 36.499443], [-100.583539, 36.499483], [-100.592551, 36.499429], [-100.592556, 36.499469], [-100.592614, 36.499469], [-100.648344, 36.499463], [-100.648343, 36.499495], [-100.657763, 36.4995], [-100.657763, 36.499483], [-100.708628, 36.499521], [-100.708626, 36.499553], [-100.724361, 36.499558], [-100.724362, 36.49958], [-100.761811, 36.49958], [-100.761811, 36.499618], [-100.802886, 36.499621], [-100.802909, 36.499621], [-100.806172, 36.499634], [-100.80619, 36.499674], [-100.824218, 36.499618], [-100.824236, 36.499618], [-100.85084, 36.4997], [-100.859657, 36.499687], [-100.88408, 36.499682], [-100.884174, 36.499682], [-100.918513, 36.499621], [-100.936058, 36.499602], [-100.954153, 36.499599], [-100.945469, 36.998153], [-100.904588, 36.998561], [-100.904274, 36.998745], [-100.89166, 36.998604], [-100.855634, 36.998626], [-100.814277, 36.999085], [-100.806116, 36.999091], [-100.765484, 36.999177], [-100.756894, 36.999357], [-100.675552, 36.999688], [-100.633327, 36.999936], [-100.633323, 36.999936], [-100.62977, 37.000025], [-100.591413, 37.000399], [-100.591328, 37.000376], [-100.552683, 37.000735], [-100.551598, 37.00062], [-100.201676, 37.002081], [-100.193754, 37.002133], [-100.192371, 37.002036], [-100.187547, 37.002082], [-100.115722, 37.002206], [-100.089484, 37.002092], [-100.005706, 37.001726], [-100.002563, 37.001706], [-100.002866, 37.000029], [-100.00316, 36.59325], [-100.003762, 36.499699], [-100.090021, 36.499634], [-100.181221, 36.499633], [-100.310643, 36.499642], [-100.311018, 36.499688], [-100.311245, 36.499631], [-100.32415, 36.499679], [-100.334441, 36.49944], [-100.334464, 36.49942], [-100.351842, 36.499473], [-100.351852, 36.499487], [-100.378592, 36.499445], [-100.378634, 36.499517], [-100.41355, 36.499469], [-100.413634, 36.499444], [-100.421301, 36.499488], [-100.421328, 36.499447], [-100.433959, 36.499456], [-100.441064, 36.499462], [-100.441065, 36.49949], [-100.522227, 36.499291], [-100.530314, 36.499357], [-100.530478, 36.49924], [-100.531215, 36.49929], [-100.531215, 36.499341], [-100.546145, 36.499343]]]}, "id": "40007"}, {"type": "Feature", "properties": {"county": "Cimarron County", "state": "OK", "fips": "40025", "rep_id": "REP-04"}, "geometry": {"type": "Polygon", "coordinates": [[[-102.162463, 36.500326], [-103.002434, 36.500397], [-103.002565, 36.526588], [-103.002188, 36.602716], [-103.002252, 36.61718], [-103.002518, 36.675186], [-103.002198, 36.719427], [-103.001964, 36.909573], [-103.002247, 36.911587], [-103.002199, 37.000104], [-102.986976, 36.998524], [-102.985807, 36.998571], [-102.979613, 36.998549], [-102.875481, 36.999628], [-102.570896, 36.995136], [-102.355367, 36.994575], [-102.355288, 36.994506], [-102.208316, 36.99373], [-102.184271, 36.993593], [-102.054503, 36.993109], [-102.04224, 36.993083], [-102.028207, 36.993125], [-102.028204, 36.993125], [-102.032339, 36.500066], [-102.162463, 36.500326]]]}, "id": "40025"}, {"type": "Feature", "properties": {"county": "Deaf Smith County", "state": "TX", "fips": "48117", "rep_id": "REP-05"}, "geometry": {"type": "Polygon", "coordinates": [[[-103.04252, 35.135596], [-103.0426, 35.142766], [-103.042711, 35.144735], [-103.042568, 35.159318], [-103.042395, 35.178573], [-103.042339, 35.181922], [-103.042366, 35.182786], [-103.042377, 35.183149], [-103.042377, 35.183156], [-102.167471, 35.183233], [-102.168839, 34.747417], [-102.525184, 34.746931], [-103.042769, 34.747361], [-103.04277, 34.792224], [-103.042781, 34.850243], [-103.042521, 34.899546], [-103.042521, 34.954101], [-103.04252, 35.135596]]]}, "id": "48117"}, {"type": "Feature", "properties": {"county": "Dallam County", "state": "TX", "fips": "48111", "rep_id": "REP-05"}, "geometry": {"type": "Polygon", "coordinates": [[[-102.162463, 36.500326], [-102.162771, 36.497902], [-102.163015, 36.055249], [-103.040824, 36.055231], [-103.041674, 36.317534], [-103.041745, 36.318267], [-103.041669, 36.478514], [-103.002434, 36.500397], [-102.162463, 36.500326]]]}, "id": "48111"}, {"type": "Feature", "properties": {"county": "Moore County", "state": "TX", "fips": "48341", "rep_id": "REP-05"}, "geometry": {"type": "Polygon", "coordinates": [[[-101.622831, 35.624057], [-101.6228, 35.620196], [-102.162752, 35.620035], [-102.162808, 35.625044], [-102.162809, 35.627515], [-102.163015, 36.055249], [-101.623466, 36.055405], [-101.622831, 35.624057]]]}, "id": "48341"}]}