{"type": "FeatureCollection", "features": [{"type": "Feature", "id": "08", "properties": {"name": "Colorado", "density": 49.33}, "geometry": {"type": "Polygon", "coordinates": [[[-107.919731, 41.003906], [-105.728954, 40.998429], [-104.053011, 41.003906], [-102.053927, 41.003906], [-102.053927, 40.001626], [-102.042974, 36.994786], [-103.001438, 37.000263], [-104.337812, 36.994786], [-106.868158, 36.994786], [-107.421329, 37.000263], [-109.042503, 37.000263], [-109.042503, 38.166851], [-109.058934, 38.27639], [-109.053457, 39.125316], [-109.04798, 40.998429], [-107.919731, 41.003906]]]}}, {"type": "Feature", "id": "19", "properties": {"name": "Iowa", "density": 54.81}, "geometry": {"type": "Polygon", "coordinates": [[[-91.368417, 43.501391], [-91.215062, 43.501391], [-91.204109, 43.353514], [-91.056231, 43.254929], [-91.176724, 43.134436], [-91.143862, 42.909881], [-91.067185, 42.75105], [-90.711184, 42.636034], [-90.639984, 42.510065], [-90.420906, 42.329326], [-90.393521, 42.225264], [-90.168967, 42.126679], [-90.141582, 42.000709], [-90.179921, 41.809016], [-90.311367, 41.743293], [-90.344229, 41.589939], [-90.656414, 41.463969], [-91.045277, 41.414677], [-91.111001, 41.239415], [-90.946692, 41.097014], [-90.963123, 40.921752], [-91.09457, 40.823167], [-91.121954, 40.669813], [-91.401278, 40.560274], [-91.417709, 40.379535], [-91.527248, 40.412397], [-91.729895, 40.615043], [-91.833957, 40.609566], [-93.257961, 40.582182], [-94.632673, 40.571228], [-95.7664, 40.587659], [-95.881416, 40.719105], [-95.826646, 40.976521], [-95.925231, 41.201076], [-95.919754, 41.453015], [-96.095016, 41.540646], [-96.122401, 41.67757], [-96.062155, 41.798063], [-96.127878, 41.973325], [-96.264801, 42.039048], [-96.44554, 42.488157], [-96.631756, 42.707235], [-96.544125, 42.855112], [-96.511264, 43.052282], [-96.434587, 43.123482], [-96.560556, 43.222067], [-96.527695, 43.397329], [-96.582464, 43.479483], [-96.451017, 43.501391], [-91.368417, 43.501391]]]}}, {"type": "Feature", "id": "20", "properties": {"name": "Kansas", "density": 35.09}, "geometry": {"type": "Polygon", "coordinates": [[[-101.90605, 40.001626], [-95.306337, 40.001626], [-95.207752, 39.908518], [-94.884612, 39.831841], [-95.109167, 39.541563], [-94.983197, 39.442978], [-94.824366, 39.20747], [-94.610765, 39.158177], [-94.616242, 37.000263], [-100.087706, 37.000263], [-102.042974, 36.994786], [-102.053927, 40.001626], [-101.90605, 40.001626]]]}}, {"type": "Feature", "id": "29", "properties": {"name": "Missouri", "density": 87.26}, "geometry": {"type": "Polygon", "coordinates": [[[-91.833957, 40.609566], [-91.729895, 40.615043], [-91.527248, 40.412397], [-91.417709, 40.379535], [-91.50534, 40.237135], [-91.494386, 40.034488], [-91.368417, 39.727779], [-91.061708, 39.470363], [-90.727615, 39.256762], [-90.661891, 38.928146], [-90.585214, 38.867899], [-90.470199, 38.961007], [-90.251121, 38.917192], [-90.10872, 38.845992], [-90.207305, 38.725499], [-90.179921, 38.632391], [-90.349706, 38.374975], [-90.355183, 38.216144], [-90.059428, 38.013497], [-89.949889, 37.88205], [-89.84035, 37.903958], [-89.517211, 37.690357], [-89.517211, 37.537003], [-89.435057, 37.34531], [-89.517211, 37.279587], [-89.292656, 36.994786], [-89.133825, 36.983832], [-89.215979, 36.578538], [-89.363857, 36.622354], [-89.418626, 36.496384], [-89.484349, 36.496384], [-89.539119, 36.496384], [-89.533642, 36.249922], [-89.730812, 35.997983], [-90.377091, 35.997983], [-90.218259, 36.184199], [-90.064905, 36.304691], [-90.152536, 36.496384], [-94.473842, 36.501861], [-94.616242, 36.501861], [-94.616242, 37.000263], [-94.610765, 39.158177], [-94.824366, 39.20747], [-94.983197, 39.442978], [-95.109167, 39.541563], [-94.884612, 39.831841], [-95.207752, 39.908518], [-95.306337, 40.001626], [-95.552799, 40.264519], [-95.7664, 40.587659], [-94.632673, 40.571228], [-93.257961, 40.582182], [-91.833957, 40.609566]]]}}, {"type": "Feature", "id": "31", "properties": {"name": "Nebraska", "density": 23.97}, "geometry": {"type": "Polygon", "coordinates": [[[-103.324578, 43.002989], [-101.626726, 42.997512], [-98.499393, 42.997512], [-98.466531, 42.94822], [-97.951699, 42.767481], [-97.831206, 42.866066], [-97.688806, 42.844158], [-97.217789, 42.844158], [-96.692003, 42.657942], [-96.626279, 42.515542], [-96.44554, 42.488157], [-96.264801, 42.039048], [-96.127878, 41.973325], [-96.062155, 41.798063], [-96.122401, 41.67757], [-96.095016, 41.540646], [-95.919754, 41.453015], [-95.925231, 41.201076], [-95.826646, 40.976521], [-95.881416, 40.719105], [-95.7664, 40.587659], [-95.552799, 40.264519], [-95.306337, 40.001626], [-101.90605, 40.001626], [-102.053927, 40.001626], [-102.053927, 41.003906], [-104.053011, 41.003906], [-104.053011, 43.002989], [-103.324578, 43.002989]]]}}, {"type": "Feature", "id": "35", "properties": {"name": "New Mexico", "density": 17.16}, "geometry": {"type": "Polygon", "coordinates": [[[-107.421329, 37.000263], [-106.868158, 36.994786], [-104.337812, 36.994786], [-103.001438, 37.000263], [-103.001438, 36.501861], [-103.039777, 36.501861], [-103.045254, 34.01533], [-103.067161, 33.002096], [-103.067161, 31.999816], [-106.616219, 31.999816], [-106.643603, 31.901231], [-106.528588, 31.786216], [-108.210008, 31.786216], [-108.210008, 31.331629], [-109.04798, 31.331629], [-109.042503, 37.000263], [-107.421329, 37.000263]]]}}, {"type": "Feature", "id": "40", "properties": {"name": "Oklahoma", "density": 55.22}, "geometry": {"type": "Polygon", "coordinates": [[[-100.087706, 37.000263], [-94.616242, 37.000263], [-94.616242, 36.501861], [-94.430026, 35.395519], [-94.484796, 33.637421], [-94.868182, 33.74696], [-94.966767, 33.861976], [-95.224183, 33.960561], [-95.289906, 33.87293], [-95.547322, 33.878407], [-95.602092, 33.933176], [-95.8376, 33.834591], [-95.936185, 33.889361], [-96.149786, 33.840068], [-96.346956, 33.686714], [-96.423633, 33.774345], [-96.631756, 33.845545], [-96.850834, 33.845545], [-96.922034, 33.960561], [-97.173974, 33.736006], [-97.256128, 33.861976], [-97.371143, 33.823637], [-97.458774, 33.905791], [-97.694283, 33.982469], [-97.869545, 33.851022], [-97.946222, 33.987946], [-98.088623, 34.004376], [-98.170777, 34.113915], [-98.36247, 34.157731], [-98.488439, 34.064623], [-98.570593, 34.146777], [-98.767763, 34.135823], [-98.986841, 34.223454], [-99.189488, 34.2125], [-99.260688, 34.404193], [-99.57835, 34.415147], [-99.698843, 34.382285], [-99.923398, 34.573978], [-100.000075, 34.563024], [-100.000075, 36.501861], [-101.812942, 36.501861], [-103.001438, 36.501861], [-103.001438, 37.000263], [-102.042974, 36.994786], [-100.087706, 37.000263]]]}}, {"type": "Feature", "id": "46", "properties": {"name": "South Dakota", "density": 98.07}, "geometry": {"type": "Polygon", "coordinates": [[[-104.047534, 45.944106], [-96.560556, 45.933153], [-96.582464, 45.818137], [-96.856311, 45.604536], [-96.681049, 45.412843], [-96.451017, 45.297827], [-96.451017, 43.501391], [-96.582464, 43.479483], [-96.527695, 43.397329], [-96.560556, 43.222067], [-96.434587, 43.123482], [-96.511264, 43.052282], [-96.544125, 42.855112], [-96.631756, 42.707235], [-96.44554, 42.488157], [-96.626279, 42.515542], [-96.692003, 42.657942], [-97.217789, 42.844158], [-97.688806, 42.844158], [-97.831206, 42.866066], [-97.951699, 42.767481], [-98.466531, 42.94822], [-98.499393, 42.997512], [-101.626726, 42.997512], [-103.324578, 43.002989], [-104.053011, 43.002989], [-104.058488, 44.996596], [-104.042057, 44.996596], [-104.047534, 45.944106]]]}}, {"type": "Feature", "id": "48", "properties": {"name": "Texas", "density": 98.07}, "geometry": {"type": "Polygon", "coordinates": [[[-101.812942, 36.501861], [-100.000075, 36.501861], [-100.000075, 34.563024], [-99.923398, 34.573978], [-99.698843, 34.382285], [-99.57835, 34.415147], [-99.260688, 34.404193], [-99.189488, 34.2125], [-98.986841, 34.223454], [-98.767763, 34.135823], [-98.570593, 34.146777], [-98.488439, 34.064623], [-98.36247, 34.157731], [-98.170777, 34.113915], [-98.088623, 34.004376], [-97.946222, 33.987946], [-97.869545, 33.851022], [-97.694283, 33.982469], [-97.458774, 33.905791], [-97.371143, 33.823637], [-97.256128, 33.861976], [-97.173974, 33.736006], [-96.922034, 33.960561], [-96.850834, 33.845545], [-96.631756, 33.845545], [-96.423633, 33.774345], [-96.346956, 33.686714], [-96.149786, 33.840068], [-95.936185, 33.889361], [-95.8376, 33.834591], [-95.602092, 33.933176], [-95.547322, 33.878407], [-95.289906, 33.87293], [-95.224183, 33.960561], [-94.966767, 33.861976], [-94.868182, 33.74696], [-94.484796, 33.637421], [-94.380734, 33.544313], [-94.183564, 33.593606], [-94.041164, 33.54979], [-94.041164, 33.018527], [-94.041164, 31.994339], [-93.822086, 31.775262], [-93.816609, 31.556184], [-93.542762, 31.15089], [-93.526331, 30.93729], [-93.630393, 30.679874], [-93.728978, 30.575812], [-93.696116, 30.438888], [-93.767317, 30.334826], [-93.690639, 30.143133], [-93.926148, 29.787132], [-93.838517, 29.688547], [-94.002825, 29.68307], [-94.523134, 29.546147], [-94.70935, 29.622824], [-94.742212, 29.787132], [-94.873659, 29.672117], [-94.966767, 29.699501], [-95.016059, 29.557101], [-94.911997, 29.496854], [-94.895566, 29.310638], [-95.081782, 29.113469], [-95.383014, 28.867006], [-95.985477, 28.604113], [-96.045724, 28.647929], [-96.226463, 28.582205], [-96.23194, 28.642452], [-96.478402, 28.598636], [-96.593418, 28.724606], [-96.664618, 28.697221], [-96.401725, 28.439805], [-96.593418, 28.357651], [-96.774157, 28.406943], [-96.801542, 28.226204], [-97.026096, 28.039988], [-97.256128, 27.694941], [-97.404005, 27.333463], [-97.513544, 27.360848], [-97.540929, 27.229401], [-97.425913, 27.262263], [-97.480682, 26.99937], [-97.557359, 26.988416], [-97.562836, 26.840538], [-97.469728, 26.758384], [-97.442344, 26.457153], [-97.332805, 26.353091], [-97.30542, 26.161398], [-97.217789, 25.991613], [-97.524498, 25.887551], [-97.650467, 26.018997], [-97.885976, 26.06829], [-98.198161, 26.057336], [-98.466531, 26.221644], [-98.669178, 26.238075], [-98.822533, 26.369522], [-99.030656, 26.413337], [-99.173057, 26.539307], [-99.266165, 26.840538], [-99.446904, 27.021277], [-99.424996, 27.174632], [-99.50715, 27.33894], [-99.479765, 27.48134], [-99.605735, 27.640172], [-99.709797, 27.656603], [-99.879582, 27.799003], [-99.934351, 27.979742], [-100.082229, 28.14405], [-100.29583, 28.280974], [-100.399891, 28.582205], [-100.498476, 28.66436], [-100.629923, 28.905345], [-100.673738, 29.102515], [-100.799708, 29.244915], [-101.013309, 29.370885], [-101.062601, 29.458516], [-101.259771, 29.535193], [-101.413125, 29.754271], [-101.851281, 29.803563], [-102.114174, 29.792609], [-102.338728, 29.869286], [-102.388021, 29.765225], [-102.629006, 29.732363], [-102.809745, 29.524239], [-102.919284, 29.190146], [-102.97953, 29.184669], [-103.116454, 28.987499], [-103.280762, 28.982022], [-103.527224, 29.135376], [-104.146119, 29.381839], [-104.266611, 29.513285], [-104.507597, 29.639255], [-104.677382, 29.924056], [-104.688336, 30.181472], [-104.858121, 30.389596], [-104.896459, 30.570335], [-105.005998, 30.685351], [-105.394861, 30.855136], [-105.602985, 31.085167], [-105.77277, 31.167321], [-105.953509, 31.364491], [-106.205448, 31.468553], [-106.38071, 31.731446], [-106.528588, 31.786216], [-106.643603, 31.901231], [-106.616219, 31.999816], [-103.067161, 31.999816], [-103.067161, 33.002096], [-103.045254, 34.01533], [-103.039777, 36.501861], [-103.001438, 36.501861], [-101.812942, 36.501861]]]}}, {"type": "Feature", "id": "56", "properties": {"name": "Wyoming", "density": 5.851}, "geometry": {"type": "Polygon", "coordinates": [[[-109.080842, 45.002073], [-105.91517, 45.002073], [-104.058488, 44.996596], [-104.053011, 43.002989], [-104.053011, 41.003906], [-105.728954, 40.998429], [-107.919731, 41.003906], [-109.04798, 40.998429], [-111.047063, 40.998429], [-111.047063, 42.000709], [-111.047063, 44.476286], [-111.05254, 45.002073], [-109.080842, 45.002073]]]}}]}